satname,norad_id,inclination_deg,eccentricity,mean_motion_rev_per_day,perigee_km,apogee_km,l1,l2
STARLINK-1454,45671,53.0543,0.0001461,15.06389725,546.2312514871728,548.2548475376416,1 45671U 20035Q   25263.00912015  .00002499  00000+0  18666-3 0  9992,2 45671  53.0543 112.8343 0001461  85.5854 274.5302 15.06389725292994
STARLINK-1456,45673,53.0538,0.0001409,15.06419014,546.1775099788247,548.1290567806818,1 45673U 20035S   25262.89114951  .00003828  00000+0  27561-3 0  9994,2 45673  53.0538 113.3654 0001409  95.8009 264.3140 15.06419014292991
STARLINK-1457,45674,53.0542,0.0001447,15.06378989,546.2738471211323,548.2780616301288,1 45674U 20035T   25262.89853000  .00003293  00000+0  23999-3 0  9997,2 45674  53.0542 113.3306 0001447  95.3791 264.7363 15.06378989292969
STARLINK-1458,45675,53.0538,0.0001501,15.06403158,546.1623857742634,548.2413725057804,1 45675U 20035U   25262.88746949  .00002660  00000+0  19741-3 0  9997,2 45675  53.0538 113.3795 0001501  94.1104 266.0057 15.06403158292954
STARLINK-1460,45676,53.0537,0.0001388,15.06404355,546.2369739954484,548.1594470498894,1 45676U 20035V   25262.85798726  .00003172  00000+0  23170-3 0  9995,2 45676  53.0537 113.5115 0001388  86.6859 273.4289 15.06404355292946
STARLINK-1392,45677,53.0546,0.0001317,15.06397174,546.3081496890263,548.1322887805736,1 45677U 20035W   25262.86904554  .00002593  00000+0  19295-3 0  9994,2 45677  53.0546 113.4635 0001317  93.8798 266.2342 15.06397174292981
STARLINK-1394,45679,53.0529,0.0001267,15.0639192,546.3588772853263,548.1137668851434,1 45679U 20035Y   25262.93260777 -.00005208  00000+0 -33109-3 0  9994,2 45679  53.0529 103.1764 0001267  92.0941 268.0194 15.06391920293134
STARLINK-1402,45685,53.0545,0.0001367,15.06386997,546.304709951447,548.1981111428913,1 45685U 20035AE  25262.83070413  .00000945  00000+0  82319-4 0  9995,2 45685  53.0545  98.0563 0001367  89.0625 271.0520 15.06386997293207
STARLINK-1404,45686,53.0546,0.0001421,15.06402049,546.2211869177927,548.1893691932164,1 45686U 20035AF  25262.82572786  .00001626  00000+0  12800-3 0  9999,2 45686  53.0546 103.6588 0001421 100.5248 259.5901 15.06402049293122
STARLINK-1413,45689,53.0531,0.0001418,15.06402367,546.2222900368606,548.1863168305144,1 45689U 20035AJ  25262.84416165  .00003731  00000+0  26919-3 0  9997,2 45689  53.0531 103.5717 0001418  89.0425 271.0727 15.06402367293034
STARLINK-1417,45693,53.0542,0.0001394,15.06400704,546.2440069923123,548.1747935687099,1 45693U 20035AN  25262.77412764  .00001572  00000+0  12437-3 0  9996,2 45693  53.0542 103.8913 0001394  92.8687 267.2461 15.06400704293100
STARLINK-1420,45695,53.0547,0.0001288,15.06402159,546.3129568801423,548.0969249641239,1 45695U 20035AQ  25262.77501747 -.00002514  00000+0 -14992-3 0  9995,2 45695  53.0547  83.8745 0001288  87.8917 272.2220 15.06402159293395
STARLINK-1422,45696,53.0535,0.0002142,15.06405474,545.7113748999982,548.678187034966,1 45696U 20035AR  25262.78516272 -.00002440  00000+0 -14492-3 0  9999,2 45696  53.0535 103.8288 0002142 135.3550 224.7611 15.06405474293108
STARLINK-1351,45697,53.0549,0.0001087,15.06401818,546.453201253139,547.9587708183035,1 45697U 20035AS  25262.76121899  .00000440  00000+0  48449-4 0  9991,2 45697  53.0549  83.9455 0001087  90.9225 269.1889 15.06401818293399
STARLINK-1398,45699,53.0528,0.0005042,15.43120083,433.4712978123098,440.34358862885347,1 45699U 20035AU  25263.25003472  .00178364  00000+0  38853-2 0  9991,2 45699  53.0528  53.0865 0005042 151.6762  40.8361 15.43120083  5985
STARLINK-1400,45700,53.0547,0.0001423,15.06385287,546.2711680146276,548.2421350478544,1 45700U 20035AV  25262.80177993  .00002217  00000+0  16777-3 0  9999,2 45700  53.0547  83.7654 0001423  91.0655 269.0497 15.06385287293399
STARLINK-1403,45701,53.0548,0.00012,15.06392709,546.4028593848425,548.0649484017758,1 45701U 20035AW  25262.83125664  .00000444  00000+0  48691-4 0  9992,2 45701  53.0548  83.6291 0001200 102.7806 257.3317 15.06392709293396
STARLINK-1407,45703,53.045,0.0007365,15.34125995,458.478883290828,468.55664075528694,1 45703U 20035AY  25262.81996787  .00098264  00000+0  29045-2 0  9991,2 45703  53.0450  51.4756 0007365 224.0005 136.0410 15.34125995293856
STARLINK-1411,45706,53.0568,9.53e-05,15.28211916,480.50387347844844,481.8112550223941,1 45706U 20035BB  25263.25003472  .00100456  00000+0  35693-2 0  9996,2 45706  53.0568  75.6749 0000953 109.8775 136.1596 15.28211916  5588
STARLINK-1423,45710,53.0548,0.0001346,15.0640383,546.2676692288551,548.1319699006817,1 45710U 20035BF  25262.92340047  .00001368  00000+0  11068-3 0  9999,2 45710  53.0548  83.2204 0001346  92.0794 268.0350 15.06403830293411
STARLINK-1433,45711,53.0543,0.000133,15.06390592,546.3193170601753,548.1614674465145,1 45711U 20035BG  25262.90499086  .00002695  00000+0  19981-3 0  9992,2 45711  53.0543  83.3011 0001330  95.5187 264.5954 15.06390592293401
STARLINK-1434,45712,53.0525,0.0004059,15.11249324,529.5838525505269,535.1938174233692,1 45712U 20035BH  25262.79802347  .00028433  00000+0  16821-2 0  9995,2 45712  53.0525  82.0024 0004059 110.2643 249.8785 15.11249324293427
STARLINK-1465,45731,53.0534,0.0001024,15.06470093,546.2876076229268,547.7058750131491,1 45731U 20038B   25262.54001596 -.00035753  00000+0 -23889-2 0  9996,2 45731  53.0534 284.9392 0001024 112.5613 247.5485 15.06470093290398
STARLINK-1471,45735,53.0479,0.0003803,15.38191479,448.86002478853516,454.0546142279527,1 45735U 20038F   25262.94681077  .00031548  00000+0  83313-3 0  9997,2 45735  53.0479 233.1739 0003803  54.0992 306.0364 15.38191479291164
STARLINK-1474,45738,53.0392,0.0005952,15.59871876,384.0003382220166,392.05478051348837,1 45738U 20038J   25263.25003472  .00212598  00000+0  25323-2 0  9994,2 45738  53.0392 196.1925 0005952 110.9210 356.7612 15.59871876  6046
STARLINK-1475,45739,53.0543,0.0008922,15.58820132,385.0311742902195,397.1101484411611,1 45739U 20038K   25263.00002315 -.00010450  00000+0 -12613-3 0  9997,2 45739  53.0543 165.0806 0008922  76.7215 183.3681 15.58820132  5993
STARLINK-1480,45741,53.0547,0.0001303,15.06402352,546.3019774285785,548.1067213842334,1 45741U 20038M   25263.05242698  .00002688  00000+0  19924-3 0  9999,2 45741  53.0547 282.6432 0001303  96.6782 263.4355 15.06402352290488
STARLINK-1500,45744,53.0391,0.0005647,15.25042744,486.77827672825333,494.53589276756793,1 45744U 20038Q   25261.41389899  .00013610  00000+0  54993-3 0  9997,2 45744  53.0391 274.8878 0005647  62.6288 297.5283 15.25042744290444
